0 SL-12 R/B(2)
1 23048U 94021F   13279.68092898  .00000067  00000-0  00000+0 0  4486
2 23048 063.8381 102.7924 0011079 225.2614 350.9715 02.13316665151845
0 SL-12 R/B(2)
1 23048U 94021F   13288.30623027  .00000076  00000-0  00000+0 0  4502
2 23048 063.8403 102.4874 0010954 225.3981 134.5579 02.13316839152028
0 SL-12 R/B(2)
1 23048U 94021F   13291.98676940  .00000035  00000-0  00000+0 0  4518
2 23048 063.8421 102.3581 0011026 225.4768 080.9106 02.13316952152102
